QIANFAN-1               
1 60379U 24140A   25269.96182193  .00000088  00000+0  11705-3 0  9991
2 60379  88.9767 307.2411 0019593  79.0970 281.2385 13.50974084 56987
QIANFAN-2               
1 60380U 24140B   25269.91643751  .00000094  00000+0  12698-3 0  9999
2 60380  88.9753 307.0957 0014368  55.7862 304.4648 13.50966225 57038
QIANFAN-3               
1 60381U 24140C   25269.99878797  .00000085  00000+0  11304-3 0  9991
2 60381  88.9748 307.2255 0015762  66.2700 294.0103 13.50966340 56951
QIANFAN-4               
1 60382U 24140D   25269.97416211  .00000080  00000+0  10471-3 0  9998
2 60382  88.9773 307.1065 0014660  57.8829 302.3743 13.50973403 57077
QIANFAN-5               
1 60383U 24140E   25269.94944998  .00000106  00000+0  14480-3 0  9997
2 60383  88.9746 307.2563 0017218  76.0421 284.2644 13.50969395 56932
QIANFAN-6               
1 60384U 24140F   25269.97006458  .00000079  00000+0  10426-3 0  9996
2 60384  88.9774 306.9799 0014913  63.0352 297.2320 13.50965247 57139
QIANFAN-7               
1 60385U 24140G   25269.99319336  .00000593  00000+0  23533-3 0  9995
2 60385  88.9774 302.7528 0012689 297.0541  62.9358 14.27559458 59443
QIANFAN-8               
1 60386U 24140H   25269.90417369  .00000088  00000+0  11803-3 0  9998
2 60386  88.9774 307.2229 0018408  64.2100 296.0948 13.50969108 56974
